STARLINK-4729           
1 53804U 22111AH  26068.71746098 -.00000037  00000+0  15780-4 0  9996
2 53804  53.2158 258.7790 0001326  89.1228 270.9916 15.08837677193892
KUIPER-00148            
1 65769U 25217H   26068.27522507  .00015783  00000+0  98730-3 0  9995
2 65769  51.8794  26.5769 0008108 351.8096   8.2745 15.09536529 25078
